NORAD_CAT_ID,OBJECT_NAME,OBJECT_TYPE,EPOCH,MEAN_MOTION,ECCENTRICITY,INCLINATION,RA_OF_ASC_NODE,ARG_OF_PERICENTER,MEAN_ANOMALY,BSTAR,MEAN_MOTION_DOT,MEAN_MOTION_DDOT,TLE_LINE0,TLE_LINE1,TLE_LINE2,SEMIMAJOR_AXIS,PERIOD,APOGEE,PERIGEE,DECAYED
49756.0,STARLINK-3207,PAYLOAD,2023-09-09 02:20:34,15.08832314,0.0001339,53.2166,275.9022,105.1561,254.9579,6.9174e-05,8.13e-06,0.0,0 STARLINK-3207,1 49756U 21115AJ  23252.09762207  .00000813  00000-0  69174-4 0  9991,2 49756  53.2166 275.9022 0001339 105.1561 254.9579 15.08832314 99013,6917.904,95.438,540.695,538.843,0.0
49756.0,STARLINK-3207,PAYLOAD,2023-09-09 08:42:06,15.08836714,0.0001382,53.2168,274.7154,98.8885,261.2264,6.2601e-05,7.08e-06,0.0,0 STARLINK-3207,1 49756U 21115AJ  23252.36258077  .00000708  00000-0  62601-4 0  9997,2 49756  53.2168 274.7154 0001382  98.8885 261.2264 15.08836714 97943,6917.89,95.438,540.711,538.799,0.0
49756.0,STARLINK-3207,PAYLOAD,2023-09-10 06:57:30,15.08838994,0.0001419,53.2168,270.5521,94.7089,265.4065,8.5843e-05,1.078e-05,0.0,0 STARLINK-3207,1 49756U 21115AJ  23253.28994143  .00001078  00000-0  85843-4 0  9994,2 49756  53.2168 270.5521 0001419  94.7089 265.4065 15.08838994 99193,6917.883,95.438,540.73,538.767,0.0
49756.0,STARLINK-3207,PAYLOAD,2023-09-11 02:02:08,15.08834623,0.0001368,53.2162,266.9828,92.0749,268.04,8.7541e-05,1.105e-05,0.0,0 STARLINK-3207,1 49756U 21115AJ  23254.08482602  .00001105  00000-0  87541-4 0  9993,2 49756  53.2162 266.9828 0001368  92.0749 268.0400 15.08834623 99314,6917.897,95.438,540.708,538.815,0.0
49756.0,STARLINK-3207,PAYLOAD,2023-09-11 08:23:41,15.08840444,0.0001405,53.2165,265.7938,93.179,266.9363,7.3368e-05,8.8e-06,0.0,0 STARLINK-3207,1 49756U 21115AJ  23254.34978319  .00000880  00000-0  73368-4 0  9998,2 49756  53.2165 265.7938 0001405  93.1790 266.9363 15.08840444 98240,6917.879,95.438,540.716,538.772,0.0
49756.0,STARLINK-3207,PAYLOAD,2023-09-12 00:17:32,15.08842622,0.0001456,53.2166,262.8196,91.2941,268.8218,7.8706e-05,9.65e-06,0.0,0 STARLINK-3207,1 49756U 21115AJ  23255.01218173  .00000965  00000-0  78706-4 0  9993,2 49756  53.2166 262.8196 0001456  91.2941 268.8218 15.08842622 99452,6917.872,95.437,540.745,538.73,0.0
49756.0,STARLINK-3207,PAYLOAD,2023-09-12 09:49:50,15.08847699,0.0001415,53.2161,261.0352,92.0431,268.0723,0.00010869,1.443e-05,0.0,0 STARLINK-3207,1 49756U 21115AJ  23255.40961705  .00001443  00000-0  10869-3 0  9999,2 49756  53.2161 261.0352 0001415  92.0431 268.0723 15.08847699 98406,6917.857,95.437,540.701,538.743,0.0
49756.0,STARLINK-3207,PAYLOAD,2023-09-12 17:46:47,15.08839867,0.0001313,53.2152,259.5477,91.7671,268.3471,4.5528e-05,4.37e-06,0.0,0 STARLINK-3207,1 49756U 21115AJ  23255.74082330  .00000437  00000-0  45528-4 0  9997,2 49756  53.2152 259.5477 0001313  91.7671 268.3471 15.08839867 98451,6917.881,95.438,540.654,538.837,0.0
49756.0,STARLINK-3207,PAYLOAD,2023-09-13 06:29:52,15.08842629,0.0001379,53.2155,257.1685,91.6347,268.4803,6.1756e-05,6.95e-06,0.0,0 STARLINK-3207,1 49756U 21115AJ  23256.27074181  .00000695  00000-0  61756-4 0  9998,2 49756  53.2155 257.1685 0001379  91.6347 268.4803 15.08842629 99642,6917.872,95.437,540.691,538.783,0.0
49756.0,STARLINK-3207,PAYLOAD,2023-09-13 17:37:34,15.08843646,0.0001378,53.2156,255.0868,92.3887,267.7263,2.0873e-05,4.4e-07,0.0,0 STARLINK-3207,1 49756U 21115AJ  23256.73442130  .00000044  00000-0  20873-4 0  9995,2 49756  53.2156 255.0868 0001378  92.3887 267.7263 15.08843646 98606,6917.869,95.437,540.688,538.781,0.0
49756.0,STARLINK-3207,PAYLOAD,2023-09-14 03:09:53,15.08834052,0.0001551,53.2166,253.3048,86.3672,273.7497,-2.2959e-05,-6.53e-06,0.0,0 STARLINK-3207,1 49756U 21115AJ  23257.13187063 -.00000653  00000-0 -22959-4 0  9996,2 49756  53.2166 253.3048 0001551  86.3672 273.7497 15.08834052 99772,6917.899,95.438,540.837,538.691,0.0
49756.0,STARLINK-3207,PAYLOAD,2023-09-14 06:20:39,15.08837128,0.0001472,53.2162,252.7087,95.005,265.111,-3.1898e-05,-7.96e-06,0.0,0 STARLINK-3207,1 49756U 21115AJ  23257.26434873 -.00000796  00000-0 -31898-4 0  9994,2 49756  53.2162 252.7087 0001472  95.0050 265.1110 15.08837128 98686,6917.889,95.438,540.772,538.736,0.0
49756.0,STARLINK-3207,PAYLOAD,2023-09-15 04:36:04,15.08803347,0.0001251,53.216,248.5458,109.6732,250.4396,0.00061531,9.509e-05,0.0,0 STARLINK-3207,1 49756U 21115AJ  23258.19171668  .00009509  00000-0  61531-3 0  9992,2 49756  53.2160 248.5458 0001251 109.6732 250.4396 15.08803347 99931,6917.992,95.44,540.723,538.992,0.0
49756.0,STARLINK-3207,PAYLOAD,2023-09-15 09:22:12,15.08843642,0.0001468,53.2161,247.6541,98.841,261.2749,0.00010058,1.313e-05,0.0,0 STARLINK-3207,1 49756U 21115AJ  23258.39042213  .00001313  00000-0  10058-3 0  9990,2 49756  53.2161 247.6541 0001468  98.8410 261.2749 15.08843642 99964,6917.869,95.437,540.75,538.719,0.0
49756.0,STARLINK-3207,PAYLOAD,2023-09-16 06:02:13,15.0883681,0.00014,53.2163,243.7895,96.7678,263.3473,8.4603e-05,1.059e-05,0.0,0 STARLINK-3207,1 49756U 21115AJ  23259.25154933  .00001059  00000-0  84603-4 0  9994,2 49756  53.2163 243.7895 0001400  96.7678 263.3473 15.08836810100097,6917.89,95.438,540.724,538.787,0.0
49756.0,STARLINK-3207,PAYLOAD,2023-09-17 07:28:23,15.08845543,0.0001384,53.2163,239.0318,94.8064,265.3087,7.9244e-05,9.74e-06,0.0,0 STARLINK-3207,1 49756U 21115AJ  23260.31138659  .00000974  00000-0  79244-4 0  9990,2 49756  53.2163 239.0318 0001384  94.8064 265.3087 15.08845543100258,6917.863,95.437,540.686,538.771,0.0
49756.0,STARLINK-3207,PAYLOAD,2023-09-18 02:33:01,15.08841825,0.0001369,53.2162,235.464,97.6223,262.4925,5.8584e-05,6.45e-06,0.0,0 STARLINK-3207,1 49756U 21115AJ  23261.10627003  .00000645  00000-0  58584-4 0  9993,2 49756  53.2162 235.4640 0001369  97.6223 262.4925 15.08841825100377,6917.875,95.437,540.687,538.793,0.0
49756.0,STARLINK-3207,PAYLOAD,2023-09-18 07:19:10,15.08844691,0.0001402,53.2161,234.5719,96.8406,263.2746,0.00010567,1.394e-05,0.0,0 STARLINK-3207,1 49756U 21115AJ  23261.30498665  .00001394  00000-0  10567-3 0  9995,2 49756  53.2161 234.5719 0001402  96.8406 263.2746 15.08844691 99297,6917.866,95.437,540.701,538.761,0.0
49756.0,STARLINK-3207,PAYLOAD,2023-09-19 08:45:20,15.08850847,0.0001477,53.2164,229.8136,82.8682,277.2478,0.00010232,1.341e-05,0.0,0 STARLINK-3207,1 49756U 21115AJ  23262.36482320  .00001341  00000-0  10232-3 0  9994,2 49756  53.2164 229.8136 0001477  82.8682 277.2478 15.08850847100563,6917.847,95.437,540.734,538.69,0.0
49756.0,STARLINK-3207,PAYLOAD,2023-09-20 03:49:58,15.08842061,0.0001515,53.2175,226.2382,86.4851,273.6315,2.6883e-05,1.4e-06,0.0,0 STARLINK-3207,1 49756U 21115AJ  23263.15971030  .00000140  00000-0  26883-4 0  9999,2 49756  53.2175 226.2382 0001515  86.4851 273.6315 15.08842061100682,6917.874,95.437,540.787,538.691,0.0
49756.0,STARLINK-3207,PAYLOAD,2023-09-20 10:11:31,15.088452,0.00015,53.2174,225.0498,90.1698,269.9466,5.12e-05,5.27e-06,0.0,0 STARLINK-3207,1 49756U 21115AJ  23263.42466717  .00000527  00000-0  51200-4 0  9990,2 49756  53.2174 225.0498 0001500  90.1698 269.9466 15.08845200 99614,6917.864,95.437,540.767,538.692,0.0
49756.0,STARLINK-3207,PAYLOAD,2023-09-20 21:19:14,15.08828654,0.0001237,53.2178,222.9713,90.7254,269.388,-0.00015633,-2.774e-05,0.0,0 STARLINK-3207,1 49756U 21115AJ  23263.88836558 -.00002774  00000-0 -15633-3 0  9991,2 49756  53.2178 222.9713 0001237  90.7254 269.3880 15.08828654 99680,6917.915,95.438,540.636,538.924,0.0
49756.0,STARLINK-3207,PAYLOAD,2023-09-21 06:51:32,15.08839775,0.0001348,53.2165,221.1866,94.9161,265.1985,-4.3303e-05,-9.77e-06,0.0,0 STARLINK-3207,1 49756U 21115AJ  23264.28579625 -.00000977  00000-0 -43303-4 0  9994,2 49756  53.2165 221.1866 0001348  94.9161 265.1985 15.08839775100850,6917.881,95.438,540.679,538.814,0.0
49756.0,STARLINK-3207,PAYLOAD,2023-09-22 03:31:33,15.08843243,0.0001357,53.2162,217.3216,96.2989,263.8158,7.8283e-05,9.58e-06,0.0,0 STARLINK-3207,1 49756U 21115AJ  23265.14691557  .00000958  00000-0  78283-4 0  9991,2 49756  53.2162 217.3216 0001357  96.2989 263.8158 15.08843243 99877,6917.87,95.437,540.674,538.797,0.0
49756.0,STARLINK-3207,PAYLOAD,2023-09-22 21:00:48,15.0883643,0.000143,53.2161,214.0507,95.2171,264.8984,0.00024192,3.564e-05,0.0,0 STARLINK-3207,1 49756U 21115AJ  23265.87555722  .00003564  00000-0  24192-3 0  9999,2 49756  53.2161 214.0507 0001430  95.2171 264.8984 15.08836430 99987,6917.891,95.438,540.746,538.767,0.0
49756.0,STARLINK-3207,PAYLOAD,2023-09-23 03:22:20,15.08848742,0.0001275,53.2162,212.8613,98.5604,261.5532,0.00025669,3.801e-05,0.0,0 STARLINK-3207,1 49756U 21115AJ  23266.14050984  .00003801  00000-0  25669-3 0  9994,2 49756  53.2162 212.8613 0001275  98.5604 261.5532 15.08848742101139,6917.854,95.437,540.601,538.837,0.0
49756.0,STARLINK-3207,PAYLOAD,2023-09-24 04:48:30,15.08846656,0.0001362,53.2176,208.1065,94.1416,265.9732,6.9282e-05,8.15e-06,0.0,0 STARLINK-3207,1 49756U 21115AJ  23267.20035452  .00000815  00000-0  69282-4 0  9997,2 49756  53.2176 208.1065 0001362  94.1416 265.9732 15.08846656101292,6917.86,95.437,540.667,538.783,0.0
49756.0,STARLINK-3207,PAYLOAD,2023-09-25 12:36:12,15.08856561,0.000124,53.2173,202.1569,98.605,261.5083,6.7942e-05,7.94e-06,0.0,0 STARLINK-3207,1 49756U 21115AJ  23268.52514354  .00000794  00000-0  67942-4 0  9993,2 49756  53.2173 202.1569 0001240  98.6050 261.5083 15.08856561100386,6917.83,95.437,540.553,538.837,0.0
49756.0,STARLINK-3207,PAYLOAD,2023-09-26 04:30:02,15.08861037,0.0001309,53.2174,199.1822,108.6462,251.4672,0.00020401,2.962e-05,0.0,0 STARLINK-3207,1 49756U 21115AJ  23269.18753361  .00002962  00000-0  20401-3 0  9996,2 49756  53.2174 199.1822 0001309 108.6462 251.4672 15.08861037100486,6917.816,95.436,540.587,538.776,0.0
49756.0,STARLINK-3207,PAYLOAD,2023-09-26 18:48:33,15.08833672,0.0001486,53.2175,196.5078,90.0464,270.0698,-0.00011727,-2.154e-05,0.0,0 STARLINK-3207,1 49756U 21115AJ  23269.78372475 -.00002154  00000-0 -11727-3 0  9991,2 49756  53.2175 196.5078 0001486  90.0464 270.0698 15.08833672101685,6917.9,95.438,540.793,538.737,0.0
